<?xml version="1.0" encoding="UTF-8"?>
<gpx creator="fabulator:gpx-builder" version="1.1" xmlns="http://www.topografix.com/GPX/1/1" xmlns:xsi="http://www.w3.org/2001/XMLSchema-instance" xsi:schemaLocation="http://www.topografix.com/GPX/1/1 https://www.topografix.com/GPX/1/1/gpx.xsd http://www.garmin.com/xmlschemas/TrackPointExtension/v2 https://www8.garmin.com/xmlschemas/TrackPointExtensionv2.xsd http://www.garmin.com/xmlschemas/GpxExtensions/v3 https://www8.garmin.com/xmlschemas/GpxExtensions/v3/GpxExtensionsv3.xsd" xmlns:gpxtpx="http://www.garmin.com/xmlschemas/TrackPointExtension/v2" xmlns:gpxx="http://www.garmin.com/xmlschemas/GpxExtensions/v3">
  <metadata>
    <name>Volandoo Flight</name>
    <author>
      <link href="https://volandoo.com/pilots">
        <text>https://volandoo.com/pilots</text>
      </link>
    </author>
    <link href="https://volandoo.com/tracks/pzW01GsongLIq7hiubKg">
      <text>https://volandoo.com/tracks</text>
    </link>
    <time>2026-07-02T15:27:01.000Z</time>
  </metadata>
  <trk>
    <trkseg>
      <trkpt lat="7.043205" lon="-73.090752">
        <ele>1158</ele>
        <time>2026-07-02T15:27:01.000Z</time>
      </trkpt>
      <trkpt lat="7.043213000000001" lon="-73.090764">
        <ele>1158</ele>
        <time>2026-07-02T15:27:02.000Z</time>
      </trkpt>
      <trkpt lat="7.043223" lon="-73.090779">
        <ele>1157</ele>
        <time>2026-07-02T15:27:03.000Z</time>
      </trkpt>
      <trkpt lat="7.043229" lon="-73.090786">
        <ele>1157</ele>
        <time>2026-07-02T15:27:04.000Z</time>
      </trkpt>
      <trkpt lat="7.0432380000000006" lon="-73.09079399999999">
        <ele>1157</ele>
        <time>2026-07-02T15:27:05.000Z</time>
      </trkpt>
      <trkpt lat="7.043252000000001" lon="-73.09080399999999">
        <ele>1157</ele>
        <time>2026-07-02T15:27:06.000Z</time>
      </trkpt>
      <trkpt lat="7.043268" lon="-73.090814">
        <ele>1156</ele>
        <time>2026-07-02T15:27:07.000Z</time>
      </trkpt>
      <trkpt lat="7.0432950000000005" lon="-73.09083299999999">
        <ele>1156</ele>
        <time>2026-07-02T15:27:08.000Z</time>
      </trkpt>
      <trkpt lat="7.043322000000001" lon="-73.09085199999998">
        <ele>1154</ele>
        <time>2026-07-02T15:27:09.000Z</time>
      </trkpt>
      <trkpt lat="7.043355000000001" lon="-73.09087899999999">
        <ele>1154</ele>
        <time>2026-07-02T15:27:10.000Z</time>
      </trkpt>
      <trkpt lat="7.0433900000000005" lon="-73.09092199999999">
        <ele>1153</ele>
        <time>2026-07-02T15:27:11.000Z</time>
      </trkpt>
      <trkpt lat="7.043423000000001" lon="-73.090983">
        <ele>1153</ele>
        <time>2026-07-02T15:27:12.000Z</time>
      </trkpt>
      <trkpt lat="7.043459" lon="-73.09104599999999">
        <ele>1153</ele>
        <time>2026-07-02T15:27:13.000Z</time>
      </trkpt>
      <trkpt lat="7.043485" lon="-73.09110499999998">
        <ele>1154</ele>
        <time>2026-07-02T15:27:14.000Z</time>
      </trkpt>
      <trkpt lat="7.043528" lon="-73.09115699999998">
        <ele>1154</ele>
        <time>2026-07-02T15:27:15.000Z</time>
      </trkpt>
      <trkpt lat="7.043561" lon="-73.09120399999998">
        <ele>1153</ele>
        <time>2026-07-02T15:27:16.000Z</time>
      </trkpt>
      <trkpt lat="7.043596" lon="-73.09125899999998">
        <ele>1153</ele>
        <time>2026-07-02T15:27:17.000Z</time>
      </trkpt>
      <trkpt lat="7.043645" lon="-73.09131699999998">
        <ele>1151</ele>
        <time>2026-07-02T15:27:18.000Z</time>
      </trkpt>
      <trkpt lat="7.043685" lon="-73.09137899999998">
        <ele>1151</ele>
        <time>2026-07-02T15:27:19.000Z</time>
      </trkpt>
      <trkpt lat="7.043717" lon="-73.09143599999997">
        <ele>1150</ele>
        <time>2026-07-02T15:27:20.000Z</time>
      </trkpt>
      <trkpt lat="7.043756" lon="-73.09148799999997">
        <ele>1148</ele>
        <time>2026-07-02T15:27:21.000Z</time>
      </trkpt>
      <trkpt lat="7.043811" lon="-73.09152999999996">
        <ele>1146</ele>
        <time>2026-07-02T15:27:22.000Z</time>
      </trkpt>
      <trkpt lat="7.043811" lon="-73.09152999999996">
        <ele>1146</ele>
        <time>2026-07-02T15:27:22.000Z</time>
      </trkpt>
      <trkpt lat="7.043871" lon="-73.09157199999996">
        <ele>1144</ele>
        <time>2026-07-02T15:27:23.000Z</time>
      </trkpt>
      <trkpt lat="7.043933" lon="-73.09161199999996">
        <ele>1144</ele>
        <time>2026-07-02T15:27:24.000Z</time>
      </trkpt>
      <trkpt lat="7.043992" lon="-73.09166199999996">
        <ele>1143</ele>
        <time>2026-07-02T15:27:25.000Z</time>
      </trkpt>
      <trkpt lat="7.044047" lon="-73.09170999999996">
        <ele>1144</ele>
        <time>2026-07-02T15:27:26.000Z</time>
      </trkpt>
      <trkpt lat="7.044097" lon="-73.09175499999996">
        <ele>1143</ele>
        <time>2026-07-02T15:27:27.000Z</time>
      </trkpt>
      <trkpt lat="7.044143" lon="-73.09182399999996">
        <ele>1143</ele>
        <time>2026-07-02T15:27:28.000Z</time>
      </trkpt>
      <trkpt lat="7.044195" lon="-73.09188299999995">
        <ele>1143</ele>
        <time>2026-07-02T15:27:29.000Z</time>
      </trkpt>
      <trkpt lat="7.04426" lon="-73.09194999999995">
        <ele>1142</ele>
        <time>2026-07-02T15:27:30.000Z</time>
      </trkpt>
      <trkpt lat="7.04431" lon="-73.09200699999995">
        <ele>1142</ele>
        <time>2026-07-02T15:27:31.000Z</time>
      </trkpt>
      <trkpt lat="7.044354" lon="-73.09206799999995">
        <ele>1143</ele>
        <time>2026-07-02T15:27:32.000Z</time>
      </trkpt>
      <trkpt lat="7.0443880000000005" lon="-73.09212699999995">
        <ele>1141</ele>
        <time>2026-07-02T15:27:33.000Z</time>
      </trkpt>
      <trkpt lat="7.0444260000000005" lon="-73.09219399999995">
        <ele>1140</ele>
        <time>2026-07-02T15:27:34.000Z</time>
      </trkpt>
      <trkpt lat="7.0444640000000005" lon="-73.09226099999995">
        <ele>1138</ele>
        <time>2026-07-02T15:27:35.000Z</time>
      </trkpt>
      <trkpt lat="7.044495" lon="-73.09233499999995">
        <ele>1137</ele>
        <time>2026-07-02T15:27:36.000Z</time>
      </trkpt>
      <trkpt lat="7.044541000000001" lon="-73.09239199999995">
        <ele>1139</ele>
        <time>2026-07-02T15:27:37.000Z</time>
      </trkpt>
      <trkpt lat="7.0445720000000005" lon="-73.09246399999995">
        <ele>1138</ele>
        <time>2026-07-02T15:27:38.000Z</time>
      </trkpt>
      <trkpt lat="7.044589" lon="-73.09252699999995">
        <ele>1137</ele>
        <time>2026-07-02T15:27:39.000Z</time>
      </trkpt>
      <trkpt lat="7.044615" lon="-73.09259299999995">
        <ele>1137</ele>
        <time>2026-07-02T15:27:40.000Z</time>
      </trkpt>
      <trkpt lat="7.044637000000001" lon="-73.09267099999995">
        <ele>1135</ele>
        <time>2026-07-02T15:27:41.000Z</time>
      </trkpt>
      <trkpt lat="7.044672" lon="-73.09274399999995">
        <ele>1136</ele>
        <time>2026-07-02T15:27:42.000Z</time>
      </trkpt>
      <trkpt lat="7.044696" lon="-73.09281299999995">
        <ele>1135</ele>
        <time>2026-07-02T15:27:43.000Z</time>
      </trkpt>
      <trkpt lat="7.044735" lon="-73.09288599999995">
        <ele>1134</ele>
        <time>2026-07-02T15:27:44.000Z</time>
      </trkpt>
      <trkpt lat="7.044755" lon="-73.09295899999995">
        <ele>1133</ele>
        <time>2026-07-02T15:27:45.000Z</time>
      </trkpt>
      <trkpt lat="7.044773" lon="-73.09303299999995">
        <ele>1132</ele>
        <time>2026-07-02T15:27:46.000Z</time>
      </trkpt>
      <trkpt lat="7.0448" lon="-73.09310699999995">
        <ele>1130</ele>
        <time>2026-07-02T15:27:47.000Z</time>
      </trkpt>
      <trkpt lat="7.04483" lon="-73.09318099999994">
        <ele>1128</ele>
        <time>2026-07-02T15:27:48.000Z</time>
      </trkpt>
      <trkpt lat="7.0448770000000005" lon="-73.09325399999994">
        <ele>1128</ele>
        <time>2026-07-02T15:27:49.000Z</time>
      </trkpt>
      <trkpt lat="7.044911000000001" lon="-73.09332699999995">
        <ele>1128</ele>
        <time>2026-07-02T15:27:50.000Z</time>
      </trkpt>
      <trkpt lat="7.044946" lon="-73.09340199999994">
        <ele>1127</ele>
        <time>2026-07-02T15:27:51.000Z</time>
      </trkpt>
      <trkpt lat="7.0449790000000005" lon="-73.09348099999994">
        <ele>1126</ele>
        <time>2026-07-02T15:27:52.000Z</time>
      </trkpt>
      <trkpt lat="7.045015" lon="-73.09356299999995">
        <ele>1125</ele>
        <time>2026-07-02T15:27:53.000Z</time>
      </trkpt>
      <trkpt lat="7.045059" lon="-73.09364399999994">
        <ele>1126</ele>
        <time>2026-07-02T15:27:54.000Z</time>
      </trkpt>
      <trkpt lat="7.045092" lon="-73.09371999999995">
        <ele>1127</ele>
        <time>2026-07-02T15:27:55.000Z</time>
      </trkpt>
      <trkpt lat="7.045123" lon="-73.09378999999994">
        <ele>1129</ele>
        <time>2026-07-02T15:27:56.000Z</time>
      </trkpt>
      <trkpt lat="7.045159" lon="-73.09385999999994">
        <ele>1130</ele>
        <time>2026-07-02T15:27:57.000Z</time>
      </trkpt>
      <trkpt lat="7.045198" lon="-73.09392599999994">
        <ele>1131</ele>
        <time>2026-07-02T15:27:58.000Z</time>
      </trkpt>
      <trkpt lat="7.04523" lon="-73.09399899999994">
        <ele>1131</ele>
        <time>2026-07-02T15:27:59.000Z</time>
      </trkpt>
      <trkpt lat="7.04525" lon="-73.09407099999994">
        <ele>1132</ele>
        <time>2026-07-02T15:28:00.000Z</time>
      </trkpt>
      <trkpt lat="7.0452650000000006" lon="-73.09414199999995">
        <ele>1132</ele>
        <time>2026-07-02T15:28:01.000Z</time>
      </trkpt>
      <trkpt lat="7.045281" lon="-73.09421499999995">
        <ele>1132</ele>
        <time>2026-07-02T15:28:02.000Z</time>
      </trkpt>
      <trkpt lat="7.04532" lon="-73.09427799999995">
        <ele>1130</ele>
        <time>2026-07-02T15:28:03.000Z</time>
      </trkpt>
      <trkpt lat="7.045364" lon="-73.09434399999995">
        <ele>1128</ele>
        <time>2026-07-02T15:28:04.000Z</time>
      </trkpt>
      <trkpt lat="7.045404" lon="-73.09441399999994">
        <ele>1126</ele>
        <time>2026-07-02T15:28:05.000Z</time>
      </trkpt>
      <trkpt lat="7.045442" lon="-73.09449099999995">
        <ele>1125</ele>
        <time>2026-07-02T15:28:06.000Z</time>
      </trkpt>
      <trkpt lat="7.045477" lon="-73.09456099999994">
        <ele>1123</ele>
        <time>2026-07-02T15:28:07.000Z</time>
      </trkpt>
      <trkpt lat="7.0455119999999996" lon="-73.09462199999994">
        <ele>1122</ele>
        <time>2026-07-02T15:28:08.000Z</time>
      </trkpt>
      <trkpt lat="7.0455559999999995" lon="-73.09468499999994">
        <ele>1120</ele>
        <time>2026-07-02T15:28:09.000Z</time>
      </trkpt>
      <trkpt lat="7.045603" lon="-73.09474099999994">
        <ele>1119</ele>
        <time>2026-07-02T15:28:10.000Z</time>
      </trkpt>
      <trkpt lat="7.045652" lon="-73.09480899999994">
        <ele>1117</ele>
        <time>2026-07-02T15:28:11.000Z</time>
      </trkpt>
      <trkpt lat="7.045698" lon="-73.09488099999994">
        <ele>1115</ele>
        <time>2026-07-02T15:28:12.000Z</time>
      </trkpt>
      <trkpt lat="7.045745999999999" lon="-73.09495499999994">
        <ele>1114</ele>
        <time>2026-07-02T15:28:13.000Z</time>
      </trkpt>
      <trkpt lat="7.0457909999999995" lon="-73.09502299999994">
        <ele>1112</ele>
        <time>2026-07-02T15:28:14.000Z</time>
      </trkpt>
      <trkpt lat="7.045832999999999" lon="-73.09508999999994">
        <ele>1111</ele>
        <time>2026-07-02T15:28:15.000Z</time>
      </trkpt>
      <trkpt lat="7.045869999999999" lon="-73.09515899999994">
        <ele>1109</ele>
        <time>2026-07-02T15:28:16.000Z</time>
      </trkpt>
      <trkpt lat="7.045901999999999" lon="-73.09522899999993">
        <ele>1108</ele>
        <time>2026-07-02T15:28:17.000Z</time>
      </trkpt>
      <trkpt lat="7.045914999999999" lon="-73.09530099999994">
        <ele>1106</ele>
        <time>2026-07-02T15:28:18.000Z</time>
      </trkpt>
      <trkpt lat="7.045889999999999" lon="-73.09536999999993">
        <ele>1103</ele>
        <time>2026-07-02T15:28:19.000Z</time>
      </trkpt>
      <trkpt lat="7.045824999999999" lon="-73.09542399999994">
        <ele>1099</ele>
        <time>2026-07-02T15:28:20.000Z</time>
      </trkpt>
      <trkpt lat="7.045729999999999" lon="-73.09543299999994">
        <ele>1096</ele>
        <time>2026-07-02T15:28:21.000Z</time>
      </trkpt>
      <trkpt lat="7.045641999999999" lon="-73.09537999999995">
        <ele>1093</ele>
        <time>2026-07-02T15:28:22.000Z</time>
      </trkpt>
      <trkpt lat="7.045600999999999" lon="-73.09529299999996">
        <ele>1091</ele>
        <time>2026-07-02T15:28:23.000Z</time>
      </trkpt>
      <trkpt lat="7.045611999999998" lon="-73.09519699999996">
        <ele>1088</ele>
        <time>2026-07-02T15:28:24.000Z</time>
      </trkpt>
      <trkpt lat="7.045670999999999" lon="-73.09512499999995">
        <ele>1086</ele>
        <time>2026-07-02T15:28:25.000Z</time>
      </trkpt>
      <trkpt lat="7.0457519999999985" lon="-73.09508499999995">
        <ele>1086</ele>
        <time>2026-07-02T15:28:26.000Z</time>
      </trkpt>
      <trkpt lat="7.045833999999998" lon="-73.09507899999996">
        <ele>1085</ele>
        <time>2026-07-02T15:28:27.000Z</time>
      </trkpt>
      <trkpt lat="7.045902999999998" lon="-73.09508799999996">
        <ele>1085</ele>
        <time>2026-07-02T15:28:28.000Z</time>
      </trkpt>
      <trkpt lat="7.045972999999998" lon="-73.09510499999996">
        <ele>1084</ele>
        <time>2026-07-02T15:28:29.000Z</time>
      </trkpt>
      <trkpt lat="7.046041999999998" lon="-73.09512499999997">
        <ele>1082</ele>
        <time>2026-07-02T15:28:30.000Z</time>
      </trkpt>
      <trkpt lat="7.046112999999998" lon="-73.09515999999996">
        <ele>1080</ele>
        <time>2026-07-02T15:28:31.000Z</time>
      </trkpt>
      <trkpt lat="7.046174999999998" lon="-73.09521899999996">
        <ele>1078</ele>
        <time>2026-07-02T15:28:32.000Z</time>
      </trkpt>
      <trkpt lat="7.046225999999998" lon="-73.09528899999995">
        <ele>1075</ele>
        <time>2026-07-02T15:28:33.000Z</time>
      </trkpt>
      <trkpt lat="7.046267999999998" lon="-73.09535499999996">
        <ele>1074</ele>
        <time>2026-07-02T15:28:34.000Z</time>
      </trkpt>
      <trkpt lat="7.046318999999998" lon="-73.09541699999996">
        <ele>1073</ele>
        <time>2026-07-02T15:28:35.000Z</time>
      </trkpt>
      <trkpt lat="7.046372999999998" lon="-73.09546899999995">
        <ele>1071</ele>
        <time>2026-07-02T15:28:36.000Z</time>
      </trkpt>
      <trkpt lat="7.0464259999999985" lon="-73.09552199999995">
        <ele>1070</ele>
        <time>2026-07-02T15:28:37.000Z</time>
      </trkpt>
      <trkpt lat="7.046478999999999" lon="-73.09557299999994">
        <ele>1069</ele>
        <time>2026-07-02T15:28:38.000Z</time>
      </trkpt>
      <trkpt lat="7.046540999999999" lon="-73.09561199999995">
        <ele>1067</ele>
        <time>2026-07-02T15:28:39.000Z</time>
      </trkpt>
      <trkpt lat="7.046611999999999" lon="-73.09565099999995">
        <ele>1065</ele>
        <time>2026-07-02T15:28:40.000Z</time>
      </trkpt>
      <trkpt lat="7.046716999999998" lon="-73.09564799999994">
        <ele>1062</ele>
        <time>2026-07-02T15:28:41.000Z</time>
      </trkpt>
      <trkpt lat="7.046794999999999" lon="-73.09567899999995">
        <ele>1061</ele>
        <time>2026-07-02T15:28:42.000Z</time>
      </trkpt>
      <trkpt lat="7.046869999999998" lon="-73.09569999999995">
        <ele>1060</ele>
        <time>2026-07-02T15:28:43.000Z</time>
      </trkpt>
      <trkpt lat="7.046925999999998" lon="-73.09573899999995">
        <ele>1057</ele>
        <time>2026-07-02T15:28:44.000Z</time>
      </trkpt>
      <trkpt lat="7.046975999999998" lon="-73.09578199999996">
        <ele>1055</ele>
        <time>2026-07-02T15:28:45.000Z</time>
      </trkpt>
      <trkpt lat="7.0470169999999985" lon="-73.09585099999995">
        <ele>1051</ele>
        <time>2026-07-02T15:28:46.000Z</time>
      </trkpt>
      <trkpt lat="7.047026999999998" lon="-73.09592999999995">
        <ele>1049</ele>
        <time>2026-07-02T15:28:47.000Z</time>
      </trkpt>
      <trkpt lat="7.047011999999998" lon="-73.09600899999995">
        <ele>1047</ele>
        <time>2026-07-02T15:28:48.000Z</time>
      </trkpt>
      <trkpt lat="7.046980999999998" lon="-73.09607999999996">
        <ele>1046</ele>
        <time>2026-07-02T15:28:49.000Z</time>
      </trkpt>
      <trkpt lat="7.046950999999998" lon="-73.09614399999995">
        <ele>1044</ele>
        <time>2026-07-02T15:28:50.000Z</time>
      </trkpt>
      <trkpt lat="7.046921999999999" lon="-73.09620899999996">
        <ele>1043</ele>
        <time>2026-07-02T15:28:51.000Z</time>
      </trkpt>
      <trkpt lat="7.0468899999999985" lon="-73.09627599999996">
        <ele>1040</ele>
        <time>2026-07-02T15:28:52.000Z</time>
      </trkpt>
      <trkpt lat="7.046847999999999" lon="-73.09634499999996">
        <ele>1038</ele>
        <time>2026-07-02T15:28:53.000Z</time>
      </trkpt>
      <trkpt lat="7.046798999999999" lon="-73.09640699999996">
        <ele>1037</ele>
        <time>2026-07-02T15:28:54.000Z</time>
      </trkpt>
      <trkpt lat="7.046740999999999" lon="-73.09645999999995">
        <ele>1036</ele>
        <time>2026-07-02T15:28:55.000Z</time>
      </trkpt>
      <trkpt lat="7.046689999999999" lon="-73.09651199999995">
        <ele>1035</ele>
        <time>2026-07-02T15:28:56.000Z</time>
      </trkpt>
      <trkpt lat="7.046637999999999" lon="-73.09656399999994">
        <ele>1034</ele>
        <time>2026-07-02T15:28:57.000Z</time>
      </trkpt>
      <trkpt lat="7.046586999999999" lon="-73.09660299999994">
        <ele>1029</ele>
        <time>2026-07-02T15:28:58.000Z</time>
      </trkpt>
      <trkpt lat="7.046541999999999" lon="-73.09665299999995">
        <ele>1027</ele>
        <time>2026-07-02T15:28:59.000Z</time>
      </trkpt>
      <trkpt lat="7.046493999999999" lon="-73.09672199999994">
        <ele>1026</ele>
        <time>2026-07-02T15:29:00.000Z</time>
      </trkpt>
      <trkpt lat="7.046433999999999" lon="-73.09678799999995">
        <ele>1024</ele>
        <time>2026-07-02T15:29:01.000Z</time>
      </trkpt>
      <trkpt lat="7.0463879999999985" lon="-73.09684599999994">
        <ele>1022</ele>
        <time>2026-07-02T15:29:02.000Z</time>
      </trkpt>
      <trkpt lat="7.046352999999999" lon="-73.09689899999994">
        <ele>1020</ele>
        <time>2026-07-02T15:29:03.000Z</time>
      </trkpt>
      <trkpt lat="7.046314999999999" lon="-73.09695399999994">
        <ele>1019</ele>
        <time>2026-07-02T15:29:04.000Z</time>
      </trkpt>
      <trkpt lat="7.046310999999999" lon="-73.09703499999993">
        <ele>1015</ele>
        <time>2026-07-02T15:29:05.000Z</time>
      </trkpt>
      <trkpt lat="7.046298999999999" lon="-73.09711599999993">
        <ele>1014</ele>
        <time>2026-07-02T15:29:06.000Z</time>
      </trkpt>
      <trkpt lat="7.046297999999999" lon="-73.09719899999993">
        <ele>1015</ele>
        <time>2026-07-02T15:29:07.000Z</time>
      </trkpt>
      <trkpt lat="7.046310999999999" lon="-73.09727599999994">
        <ele>1015</ele>
        <time>2026-07-02T15:29:08.000Z</time>
      </trkpt>
      <trkpt lat="7.046341999999999" lon="-73.09734299999994">
        <ele>1014</ele>
        <time>2026-07-02T15:29:09.000Z</time>
      </trkpt>
      <trkpt lat="7.046389999999999" lon="-73.09740199999993">
        <ele>1013</ele>
        <time>2026-07-02T15:29:10.000Z</time>
      </trkpt>
      <trkpt lat="7.046449999999999" lon="-73.09744699999993">
        <ele>1011</ele>
        <time>2026-07-02T15:29:11.000Z</time>
      </trkpt>
      <trkpt lat="7.046518999999999" lon="-73.09748999999994">
        <ele>1009</ele>
        <time>2026-07-02T15:29:12.000Z</time>
      </trkpt>
      <trkpt lat="7.046586999999999" lon="-73.09752399999994">
        <ele>1007</ele>
        <time>2026-07-02T15:29:13.000Z</time>
      </trkpt>
      <trkpt lat="7.046668999999999" lon="-73.09753599999993">
        <ele>1004</ele>
        <time>2026-07-02T15:29:14.000Z</time>
      </trkpt>
      <trkpt lat="7.0467499999999985" lon="-73.09752799999994">
        <ele>1002</ele>
        <time>2026-07-02T15:29:15.000Z</time>
      </trkpt>
      <trkpt lat="7.046836999999998" lon="-73.09751399999995">
        <ele>1000</ele>
        <time>2026-07-02T15:29:16.000Z</time>
      </trkpt>
      <trkpt lat="7.046922999999998" lon="-73.09749999999995">
        <ele>998</ele>
        <time>2026-07-02T15:29:17.000Z</time>
      </trkpt>
      <trkpt lat="7.047001999999998" lon="-73.09748099999996">
        <ele>997</ele>
        <time>2026-07-02T15:29:18.000Z</time>
      </trkpt>
      <trkpt lat="7.0470799999999985" lon="-73.09744699999996">
        <ele>995</ele>
        <time>2026-07-02T15:29:19.000Z</time>
      </trkpt>
      <trkpt lat="7.047154999999998" lon="-73.09740399999995">
        <ele>993</ele>
        <time>2026-07-02T15:29:20.000Z</time>
      </trkpt>
      <trkpt lat="7.047229999999998" lon="-73.09736099999995">
        <ele>991</ele>
        <time>2026-07-02T15:29:21.000Z</time>
      </trkpt>
      <trkpt lat="7.047309999999998" lon="-73.09732499999996">
        <ele>989</ele>
        <time>2026-07-02T15:29:22.000Z</time>
      </trkpt>
      <trkpt lat="7.0473909999999975" lon="-73.09729199999995">
        <ele>987</ele>
        <time>2026-07-02T15:29:23.000Z</time>
      </trkpt>
      <trkpt lat="7.047467999999998" lon="-73.09725799999995">
        <ele>986</ele>
        <time>2026-07-02T15:29:24.000Z</time>
      </trkpt>
      <trkpt lat="7.047541999999997" lon="-73.09722899999996">
        <ele>985</ele>
        <time>2026-07-02T15:29:25.000Z</time>
      </trkpt>
      <trkpt lat="7.047610999999997" lon="-73.09721299999995">
        <ele>983</ele>
        <time>2026-07-02T15:29:26.000Z</time>
      </trkpt>
      <trkpt lat="7.047688999999997" lon="-73.09721799999996">
        <ele>981</ele>
        <time>2026-07-02T15:29:27.000Z</time>
      </trkpt>
      <trkpt lat="7.047770999999997" lon="-73.09723999999996">
        <ele>979</ele>
        <time>2026-07-02T15:29:28.000Z</time>
      </trkpt>
      <trkpt lat="7.047838999999997" lon="-73.09728599999995">
        <ele>978</ele>
        <time>2026-07-02T15:29:29.000Z</time>
      </trkpt>
      <trkpt lat="7.047880999999997" lon="-73.09735299999996">
        <ele>977</ele>
        <time>2026-07-02T15:29:30.000Z</time>
      </trkpt>
      <trkpt lat="7.0479049999999965" lon="-73.09742399999996">
        <ele>975</ele>
        <time>2026-07-02T15:29:31.000Z</time>
      </trkpt>
      <trkpt lat="7.047915999999996" lon="-73.09749199999996">
        <ele>973</ele>
        <time>2026-07-02T15:29:32.000Z</time>
      </trkpt>
      <trkpt lat="7.047915999999996" lon="-73.09755699999997">
        <ele>972</ele>
        <time>2026-07-02T15:29:33.000Z</time>
      </trkpt>
      <trkpt lat="7.047916999999996" lon="-73.09763399999997">
        <ele>970</ele>
        <time>2026-07-02T15:29:34.000Z</time>
      </trkpt>
      <trkpt lat="7.0479049999999965" lon="-73.09771499999997">
        <ele>968</ele>
        <time>2026-07-02T15:29:35.000Z</time>
      </trkpt>
      <trkpt lat="7.0478919999999965" lon="-73.09779999999996">
        <ele>967</ele>
        <time>2026-07-02T15:29:36.000Z</time>
      </trkpt>
      <trkpt lat="7.047848999999997" lon="-73.09786799999996">
        <ele>967</ele>
        <time>2026-07-02T15:29:37.000Z</time>
      </trkpt>
      <trkpt lat="7.047807999999996" lon="-73.09793399999997">
        <ele>967</ele>
        <time>2026-07-02T15:29:38.000Z</time>
      </trkpt>
      <trkpt lat="7.047773999999996" lon="-73.09799799999996">
        <ele>966</ele>
        <time>2026-07-02T15:29:39.000Z</time>
      </trkpt>
      <trkpt lat="7.047749999999996" lon="-73.09806699999996">
        <ele>965</ele>
        <time>2026-07-02T15:29:40.000Z</time>
      </trkpt>
      <trkpt lat="7.047722999999996" lon="-73.09815099999996">
        <ele>963</ele>
        <time>2026-07-02T15:29:41.000Z</time>
      </trkpt>
      <trkpt lat="7.047686999999996" lon="-73.09823499999996">
        <ele>963</ele>
        <time>2026-07-02T15:29:42.000Z</time>
      </trkpt>
      <trkpt lat="7.047651999999997" lon="-73.09829499999996">
        <ele>963</ele>
        <time>2026-07-02T15:29:43.000Z</time>
      </trkpt>
      <trkpt lat="7.047611999999996" lon="-73.09834999999997">
        <ele>964</ele>
        <time>2026-07-02T15:29:44.000Z</time>
      </trkpt>
      <trkpt lat="7.047590999999996" lon="-73.09839899999997">
        <ele>961</ele>
        <time>2026-07-02T15:29:45.000Z</time>
      </trkpt>
      <trkpt lat="7.047579999999996" lon="-73.09846099999997">
        <ele>958</ele>
        <time>2026-07-02T15:29:46.000Z</time>
      </trkpt>
      <trkpt lat="7.047581999999997" lon="-73.09853899999997">
        <ele>953</ele>
        <time>2026-07-02T15:29:47.000Z</time>
      </trkpt>
      <trkpt lat="7.047607999999997" lon="-73.09862199999998">
        <ele>950</ele>
        <time>2026-07-02T15:29:48.000Z</time>
      </trkpt>
      <trkpt lat="7.047685999999997" lon="-73.09867699999998">
        <ele>948</ele>
        <time>2026-07-02T15:29:49.000Z</time>
      </trkpt>
      <trkpt lat="7.047753999999997" lon="-73.09874499999998">
        <ele>945</ele>
        <time>2026-07-02T15:29:50.000Z</time>
      </trkpt>
      <trkpt lat="7.047837999999997" lon="-73.09872999999997">
        <ele>945</ele>
        <time>2026-07-02T15:29:51.000Z</time>
      </trkpt>
      <trkpt lat="7.047912999999997" lon="-73.09873999999998">
        <ele>942</ele>
        <time>2026-07-02T15:29:52.000Z</time>
      </trkpt>
      <trkpt lat="7.047988999999997" lon="-73.09873399999998">
        <ele>940</ele>
        <time>2026-07-02T15:29:53.000Z</time>
      </trkpt>
      <trkpt lat="7.048071999999997" lon="-73.09872399999998">
        <ele>938</ele>
        <time>2026-07-02T15:29:54.000Z</time>
      </trkpt>
      <trkpt lat="7.048156999999997" lon="-73.09870899999997">
        <ele>934</ele>
        <time>2026-07-02T15:29:55.000Z</time>
      </trkpt>
      <trkpt lat="7.048246999999997" lon="-73.09868599999997">
        <ele>931</ele>
        <time>2026-07-02T15:29:56.000Z</time>
      </trkpt>
      <trkpt lat="7.048328999999997" lon="-73.09866499999997">
        <ele>931</ele>
        <time>2026-07-02T15:29:57.000Z</time>
      </trkpt>
      <trkpt lat="7.048391999999997" lon="-73.09864399999996">
        <ele>928</ele>
        <time>2026-07-02T15:29:58.000Z</time>
      </trkpt>
      <trkpt lat="7.048462999999997" lon="-73.09860699999996">
        <ele>926</ele>
        <time>2026-07-02T15:29:59.000Z</time>
      </trkpt>
      <trkpt lat="7.048537999999997" lon="-73.09858899999996">
        <ele>922</ele>
        <time>2026-07-02T15:30:00.000Z</time>
      </trkpt>
      <trkpt lat="7.048633999999997" lon="-73.09857099999996">
        <ele>921</ele>
        <time>2026-07-02T15:30:01.000Z</time>
      </trkpt>
      <trkpt lat="7.048723999999997" lon="-73.09856199999996">
        <ele>921</ele>
        <time>2026-07-02T15:30:02.000Z</time>
      </trkpt>
      <trkpt lat="7.048806999999997" lon="-73.09855999999996">
        <ele>921</ele>
        <time>2026-07-02T15:30:03.000Z</time>
      </trkpt>
      <trkpt lat="7.048885999999998" lon="-73.09857299999996">
        <ele>919</ele>
        <time>2026-07-02T15:30:04.000Z</time>
      </trkpt>
      <trkpt lat="7.048964999999998" lon="-73.09859599999996">
        <ele>918</ele>
        <time>2026-07-02T15:30:05.000Z</time>
      </trkpt>
      <trkpt lat="7.049048999999998" lon="-73.09862499999996">
        <ele>917</ele>
        <time>2026-07-02T15:30:06.000Z</time>
      </trkpt>
      <trkpt lat="7.049128999999998" lon="-73.09867199999995">
        <ele>916</ele>
        <time>2026-07-02T15:30:07.000Z</time>
      </trkpt>
      <trkpt lat="7.049195999999998" lon="-73.09871499999996">
        <ele>916</ele>
        <time>2026-07-02T15:30:08.000Z</time>
      </trkpt>
      <trkpt lat="7.049250999999997" lon="-73.09876199999995">
        <ele>915</ele>
        <time>2026-07-02T15:30:09.000Z</time>
      </trkpt>
      <trkpt lat="7.049306999999997" lon="-73.09880999999996">
        <ele>913</ele>
        <time>2026-07-02T15:30:10.000Z</time>
      </trkpt>
      <trkpt lat="7.049363999999997" lon="-73.09886099999996">
        <ele>910</ele>
        <time>2026-07-02T15:30:11.000Z</time>
      </trkpt>
      <trkpt lat="7.049412999999997" lon="-73.09892099999996">
        <ele>908</ele>
        <time>2026-07-02T15:30:12.000Z</time>
      </trkpt>
      <trkpt lat="7.0494489999999965" lon="-73.09897199999996">
        <ele>907</ele>
        <time>2026-07-02T15:30:13.000Z</time>
      </trkpt>
      <trkpt lat="7.049471999999996" lon="-73.09901699999996">
        <ele>906</ele>
        <time>2026-07-02T15:30:14.000Z</time>
      </trkpt>
      <trkpt lat="7.049479999999996" lon="-73.09904399999996">
        <ele>908</ele>
        <time>2026-07-02T15:30:15.000Z</time>
      </trkpt>
      <trkpt lat="7.049487999999997" lon="-73.09905399999997">
        <ele>908</ele>
        <time>2026-07-02T15:30:16.000Z</time>
      </trkpt>
      <trkpt lat="7.049493999999997" lon="-73.09906799999996">
        <ele>908</ele>
        <time>2026-07-02T15:30:17.000Z</time>
      </trkpt>
      <trkpt lat="7.049497999999996" lon="-73.09906999999995">
        <ele>908</ele>
        <time>2026-07-02T15:30:18.000Z</time>
      </trkpt>
      <trkpt lat="7.049501999999996" lon="-73.09907099999995">
        <ele>908</ele>
        <time>2026-07-02T15:30:19.000Z</time>
      </trkpt>
      <trkpt lat="7.049501999999996" lon="-73.09907299999995">
        <ele>908</ele>
        <time>2026-07-02T15:30:20.000Z</time>
      </trkpt>
      <trkpt lat="7.049500999999996" lon="-73.09906899999994">
        <ele>908</ele>
        <time>2026-07-02T15:30:21.000Z</time>
      </trkpt>
      <trkpt lat="7.049500999999996" lon="-73.09906399999994">
        <ele>909</ele>
        <time>2026-07-02T15:30:22.000Z</time>
      </trkpt>
      <trkpt lat="7.049499999999996" lon="-73.09906099999994">
        <ele>909</ele>
        <time>2026-07-02T15:30:23.000Z</time>
      </trkpt>
      <trkpt lat="7.049496999999995" lon="-73.09905999999994">
        <ele>908</ele>
        <time>2026-07-02T15:30:24.000Z</time>
      </trkpt>
      <trkpt lat="7.049492999999996" lon="-73.09905599999993">
        <ele>908</ele>
        <time>2026-07-02T15:30:25.000Z</time>
      </trkpt>
      <trkpt lat="7.049491999999995" lon="-73.09905299999993">
        <ele>909</ele>
        <time>2026-07-02T15:30:26.000Z</time>
      </trkpt>
      <trkpt lat="7.049487999999996" lon="-73.09905299999993">
        <ele>909</ele>
        <time>2026-07-02T15:30:27.000Z</time>
      </trkpt>
      <trkpt lat="7.049481999999996" lon="-73.09905599999993">
        <ele>910</ele>
        <time>2026-07-02T15:30:28.000Z</time>
      </trkpt>
      <trkpt lat="7.049475999999996" lon="-73.09905799999993">
        <ele>909</ele>
        <time>2026-07-02T15:30:29.000Z</time>
      </trkpt>
      <trkpt lat="7.049470999999996" lon="-73.09905899999993">
        <ele>909</ele>
        <time>2026-07-02T15:30:30.000Z</time>
      </trkpt>
      <trkpt lat="7.049467999999996" lon="-73.09906099999992">
        <ele>909</ele>
        <time>2026-07-02T15:30:31.000Z</time>
      </trkpt>
      <trkpt lat="7.049464999999995" lon="-73.09906199999992">
        <ele>909</ele>
        <time>2026-07-02T15:30:32.000Z</time>
      </trkpt>
      <trkpt lat="7.049463999999995" lon="-73.09906299999992">
        <ele>909</ele>
        <time>2026-07-02T15:30:33.000Z</time>
      </trkpt>
    </trkseg>
  </trk>
</gpx>